CAS-2T & KS-1Q          
1 41847U 16066G   20307.59554790  .00000185  00000-0  38048-4 0  9990
2 41847  98.6370 359.3865 0365733 177.0374 183.3103 14.38105774209273
NAYIF-1 (EO-88)         
1 42017U 17008BX  20307.45324225  .00003168  00000-0  12254-3 0  9994
2 42017  97.3460  12.9252 0006049 178.5481 181.5776 15.26925006206604
ZHUHAI-1 02 (CAS-4B)    
1 42759U 17034B   20307.56240979  .00000454  00000-0  40941-4 0  9991
2 42759  43.0192 348.1901 0009745 188.5491 327.2692 15.09929724186841
ZHUHAI-1 01 (CAS-4A)    
1 42761U 17034D   20307.56002370  .00000491  00000-0  43073-4 0  9995
2 42761  43.0203 347.4118 0010218 189.6092 295.6677 15.10009415186844
MAX VALIER SAT          
1 42778U 17036P   20307.40660537  .00001679  00000-0  74511-4 0  9993
2 42778  97.2887 357.1195 0010503 254.3728 105.6350 15.22879369186728
RADFXSAT (FOX-1B)       
1 43017U 17073E   20307.53929897  .00001509  00000-0  12252-3 0  9997
2 43017  97.7151 214.3962 0255630 320.6565  37.6316 14.79113237159573
FOX-1D (AO-92)          
1 43137U 18004AC  20307.47673400  .00001910  00000-0  80801-4 0  9996
2 43137  97.4331  17.6253 0007573 295.0057  65.0394 15.24411656156072
DIWATA-2B               
1 43678U 18084H   20307.59459669  .00000072  00000-0  12921-4 0  9992
2 43678  97.8994  66.1181 0011421  81.4382 278.8099 14.91665610109613
ES'HAIL 2               
1 43700U 18090A   20307.09582014  .00000156  00000-0  00000-0 0  9995
2 43700   0.0088 216.4293 0002220  33.2410 212.4875  1.00274483  7092
FOX-1CLIFF (AO-95)      
1 43770U 18099N   20307.45095832  .00000207  00000-0  24093-4 0  9997
2 43770  97.6933  16.3362 0015973  96.2711 264.0330 14.95080044104538
ITASAT 1                
1 43786U 18099AE  20307.14949537  .00000911  00000-0  87440-4 0  9997
2 43786  97.6950  16.5583 0016767  91.3466 268.9676 14.95407819104513
JY1SAT (JO-97)          
1 43803U 18099AX  20307.41465891  .00001031  00000-0  97815-4 0  9994
2 43803  97.6911  16.6065 0016731  90.8359 269.4779 14.95603036104555
PSAT2 (NO-104)          
1 44354U 19036R   20307.08566428  .00019412  00000-0  27920-3 0  9990
2 44354  28.5297 195.0777 0353801 343.6298  15.3116 15.06117329 74571
BRICSAT2 (NO-103)       
1 44355U 19036S   20306.96307740  .00039312  00000-0  52392-3 0  9999
2 44355  28.5280 178.3797 0322890  10.7687 349.9626 15.14038671 74739
JAISAT-1                
1 44419U 19038F   20307.45873567  .00001815  00000-0  10591-3 0  9994
2 44419  97.5569 267.5818 0022048  19.3501 340.8562 15.13030431 73466
DUCHIFAT-3              
1 44854U 19089C   20307.50229421  .00000670  00000-0  60388-4 0  9991
2 44854  36.9674   2.4531 0007244  94.5790 265.5781 14.99178558 49024
RS-44 & BREEZE-KM R/B   
1 44909U 19096E   20307.58476366  .00000005  00000-0 -17446-4 0  9990
2 44909  82.5197 263.5183 0216239 263.5693  94.0746 12.79708504 39853
ORBITAL FACTORY 2 (OF-2)
1 45113U 19071C   20307.56657302  .00005157  00000-0  16562-3 0  9999
2 45113  51.6444  56.1172 0012674 193.0780 166.9875 15.33951591 42325
HUSKYSAT-1              
1 45119U 19071J   20307.59223880  .00005012  00000-0  16048-3 0  9997
2 45119  51.6433  55.5389 0012055 189.3541 170.7218 15.34118591 42328
SALSAT                  
1 46495U 20068K   20307.55995403  .00001093  00000-0  85021-4 0  9999
2 46495  97.6702 240.7208 0017962 118.1980 242.1052 15.03246147  5247
